OBJECT_NAME,OBJECT_ID,EPOCH,MEAN_MOTION,ECCENTRICITY,INCLINATION,RA_OF_ASC_NODE,ARG_OF_PERICENTER,MEAN_ANOMALY,EPHEMERIS_TYPE,CLASSIFICATION_TYPE,NORAD_CAT_ID,ELEMENT_SET_NO,REV_AT_EPOCH,BSTAR,MEAN_MOTION_DOT,MEAN_MOTION_DDOT
SIRION PATHFINDER-2,2018-099B,2026-06-13T14:44:13.071552,15.14519610,.00074756,97.4258,213.7562,319.8763,40.1916,0,U,43759,999,41208,.28799208E-3,.5243E-4,0
CORVUS BC4,2018-099K,2026-06-13T02:04:32.862144,15.12463519,.00087268,97.4069,207.1866,26.5723,333.5953,0,U,43767,999,41178,.25037159E-3,.4295E-4,0
M2 PATHFINDER,2020-037E,2026-06-13T12:32:06.393408,15.04663779,.00122024,97.8152,355.7133,157.4741,202.7023,0,U,45727,999,32494,.16773452E-3,.2298E-4,0
NETSAT-4,2020-068U,2026-06-13T11:52:54.415200,15.43750464,.000428,97.8598,172.4392,354.6023,5.5177,0,U,46504,999,31520,.40574102E-3,.18266E-3,0
NETSAT-2,2020-068X,2026-06-13T12:57:52.153344,15.45852892,.00038991,97.8612,172.3690,37.7157,322.4364,0,U,46507,999,31517,.46446011E-3,.22485E-3,0
SITRO-AIS 6 (CHIRKIN),2023-091AC,2026-06-13T15:19:40.416672,15.25872542,.00131049,97.5076,227.6420,117.3928,242.8645,0,U,57192,999,16374,.41186297E-3,.10506E-3,0
SITRO-AIS 7 (FARTUSHNIY),2023-091AE,2026-06-13T15:23:09.950496,15.25562091,.00129247,97.5073,227.4713,118.2686,241.9858,0,U,57194,999,16373,.41643013E-3,.10523E-3,0
SITRO-AIS 10 (BURDAEV),2023-091AK,2026-06-13T14:34:14.977920,15.38485809,.00076814,97.5090,235.0634,91.0915,269.1210,0,U,57199,999,16421,.56303247E-3,.21349E-3,0
SITRO-AIS 9 (SHCHUKIN),2023-091AM,2026-06-13T13:36:56.340864,15.37998007,.00079426,97.5087,234.7557,91.3456,268.8699,0,U,57201,999,16419,.52811522E-3,.19702E-3,0
SITRO-AIS 12 (SMIRENNIY),2023-091AQ,2026-06-13T14:58:05.634912,15.38289820,.00075017,97.5101,235.2782,86.2334,273.9768,0,U,57204,999,16422,.53338104E-3,.20088E-3,0
SITRO-AIS 25,2024-039R,2026-06-13T14:58:53.078016,14.93498015,.01439201,95.3913,232.6440,341.3442,18.2538,0,U,59066,999,12419,.20845258E-3,.2654E-4,0
SITRO-AIS 26,2024-039S,2026-06-13T15:00:09.699264,14.93294196,.01442666,95.3915,232.5429,341.9154,17.6968,0,U,59067,999,12418,.20246452E-3,.2565E-4,0
SITRO-AIS 27,2024-039T,2026-06-13T14:18:45.541152,14.93712843,.01432225,95.3917,232.7930,340.6140,18.9669,0,U,59068,999,12420,.26343239E-3,.3377E-4,0
GRBBETA,2024-128C,2026-06-13T15:16:01.994880,15.06618836,.00411017,61.9894,228.7249,133.9233,226.5265,0,U,60237,999,10573,.24879205E-3,.3556E-4,0
OOV-CUBE (TUBSAT-30),2024-128F,2026-06-13T12:41:36.282624,15.02760687,.00450904,61.9948,238.3294,132.8997,227.5893,0,U,60240,999,10556,.17407525E-3,.2174E-4,0
CROCUBE,2024-247T,2026-06-13T14:51:27.464832,15.48030850,.000821,44.9724,279.6530,315.1558,44.8668,0,U,62394,999,8279,.71841221E-3,.3832E-3,0
KNACKSAT-2,1998-067XZ,2026-06-13T15:13:54.293952,15.59671586,.00095477,51.6302,312.3427,199.6218,160.4409,0,U,67683,999,1972,.57979332E-3,.47047E-3,0
