{"fetched_at":"2026-06-14T08:17:21Z","count":15259,"tles":[{"name":"SITRO-AIS 12 (SMIRENNIY)","line1":"1 57204U 23091AQ  26164.62367633  .00020088  00000+0  53338-3 0  9990","line2":"2 57204  97.5101 235.2782 0007501  86.2334 273.9768 15.38289820164224","category":"Other"},{"name":"SITRO-AIS 27","line1":"1 59068U 24039T   26164.59636043  .00003377  00000+0  26343-3 0  9991","line2":"2 59068  95.3917 232.7930 0143222 340.6140  18.9669 14.93712843124202","category":"Other"},{"name":"SIRION PATHFINDER-2","line1":"1 43759U 18099B   26164.61404018  .00005243  00000+0  28799-3 0  9999","line2":"2 43759  97.4258 213.7562 0007475 319.8763  40.1916 15.14519610412080","category":"Other"},{"name":"SITRO-AIS 7 (FARTUSHNIY)","line1":"1 57194U 23091AE  26164.64108739  .00010523  00000+0  41643-3 0  9999","line2":"2 57194  97.5073 227.4713 0012924 118.2686 241.9858 15.25562091163738","category":"Other"},{"name":"OOV-CUBE (TUBSAT-30)","line1":"1 60240U 24128F   26164.52889216  .00002174  00000+0  17408-3 0  9995","line2":"2 60240  61.9948 238.3294 0045090 132.8997 227.5893 15.02760687105564","category":"Other"},{"name":"SITRO-AIS 10 (BURDAEV)","line1":"1 57199U 23091AK  26164.60711780  .00021349  00000+0  56303-3 0  9993","line2":"2 57199  97.5090 235.0634 0007681  91.0915 269.1210 15.38485809164219","category":"Other"},{"name":"CORVUS BC4","line1":"1 43767U 18099K   26164.08649146  .00004295  00000+0  25037-3 0  9990","line2":"2 43767  97.4069 207.1866 0008726  26.5723 333.5953 15.12463519411781","category":"Other"},{"name":"CROCUBE","line1":"1 62394U 24247T   26164.61906788  .00038320  00000+0  71841-3 0  9996","line2":"2 62394  44.9724 279.6530 0008210 315.1558  44.8668 15.48030850 82793","category":"Other"},{"name":"NETSAT-2","line1":"1 46507U 20068X   26164.54018696  .00022485  00000+0  46446-3 0  9993","line2":"2 46507  97.8612 172.3690 0003899  37.7157 322.4364 15.45852892315174","category":"Other"},{"name":"SITRO-AIS 9 (SHCHUKIN)","line1":"1 57201U 23091AM  26164.56731876  .00019702  00000+0  52812-3 0  9991","line2":"2 57201  97.5087 234.7557 0007942  91.3456 268.8699 15.37998007164194","category":"Other"},{"name":"GRBBETA","line1":"1 60237U 24128C   26164.63613420  .00003556  00000+0  24879-3 0  9990","line2":"2 60237  61.9894 228.7249 0041101 133.9233 226.5265 15.06618836105730","category":"Other"},{"name":"SITRO-AIS 25","line1":"1 59066U 24039R   26164.62422544  .00002654  00000+0  20845-3 0  9990","line2":"2 59066  95.3913 232.6440 0143920 341.3442  18.2538 14.93498015124197","category":"Other"},{"name":"NETSAT-4","line1":"1 46504U 20068U   26164.49507425  .00018266  00000+0  40574-3 0  9995","line2":"2 46504  97.8598 172.4392 0004280 354.6023   5.5177 15.43750464315207","category":"Other"},{"name":"M2 PATHFINDER","line1":"1 45727U 20037E   26164.52229622  .00002298  00000+0  16773-3 0  9993","line2":"2 45727  97.8152 355.7133 0012202 157.4741 202.7023 15.04663779324948","category":"Other"},{"name":"SITRO-AIS 6 (CHIRKIN)","line1":"1 57192U 23091AC  26164.63866223  .00010506  00000+0  41186-3 0  9998","line2":"2 57192  97.5076 227.6420 0013104 117.3928 242.8645 15.25872542163746","category":"Other"},{"name":"KNACKSAT-2","line1":"1 67683U 98067XZ  26164.63465618  .00047047  00000+0  57979-3 0  9999","line2":"2 67683  51.6302 312.3427 0009547 199.6218 160.4409 15.59671586 19728","category":"Other"},{"name":"SITRO-AIS 26","line1":"1 59067U 24039S   26164.62511226  .00002565  00000+0  20246-3 0  9993","line2":"2 59067  95.3915 232.5429 0144266 341.9154  17.6968 14.93294196124189","category":"Other"}]}